{
  "type": "FeatureCollection",
  "name": "estaciones_meteorologicas",
  "features": [
    {
      "type": "Feature",
      "geometry": {
        "type": "Point",
        "coordinates": [
          -68.48448,
          -33.11576
        ]
      },
      "properties": {
        "Nombre": "Junin",
        "Coordenadas": "-33.11576, -68.48448",
        "Fecha": "26/09/2026 18:04",
        "Temperatura": "30,6",
        "Humedad": "14,3",
        "Punto_de_Rocio": "0,4 °c",
        "Precipitacion": "0,00 mm",
        "Direccion_del_Viento": "81",
        "Velocidad_del_Viento": "11,2 km/h",
        "campo_15": "https://docs.google.com/spreadsheets/d/1MujiYSwhLQdPd90Qo8T2AVP3wb6Dd-dw3qcA7NwuLYA/pubhtml?gid=825433005&single=true",
        "Temperatura_num": 30.6,
        "Humedad_num": 14.3,
        "Punto_de_Rocio_num": 0.4,
        "Precipitacion_mm_num": 0.0,
        "Direccion_del_Viento_num": 81.0,
        "Velocidad_del_Viento_kmh_num": 11.2,
        "Latitud": -33.11576,
        "Longitud": -68.48448,
        "actualizacion_geojson_utc": "2026-09-26T21:09:11.265157+00:00"
      }
    },
    {
      "type": "Feature",
      "geometry": {
        "type": "Point",
        "coordinates": [
          -68.662948,
          -33.168959
        ]
      },
      "properties": {
        "Nombre": "Medrano",
        "Coordenadas": "-33.168959, -68.662948",
        "Fecha": "26/09/2026 18:04",
        "Temperatura": "28,1",
        "Humedad": "11,5",
        "Punto_de_Rocio": "-4,5 °c",
        "Precipitacion": "0,00 mm",
        "Direccion_del_Viento": "43",
        "Velocidad_del_Viento": "2,2 km/h",
        "campo_15": "https://docs.google.com/spreadsheets/d/1MujiYSwhLQdPd90Qo8T2AVP3wb6Dd-dw3qcA7NwuLYA/pubhtml?gid=1378573730&single=true",
        "Temperatura_num": 28.1,
        "Humedad_num": 11.5,
        "Punto_de_Rocio_num": -4.5,
        "Precipitacion_mm_num": 0.0,
        "Direccion_del_Viento_num": 43.0,
        "Velocidad_del_Viento_kmh_num": 2.2,
        "Latitud": -33.168959,
        "Longitud": -68.662948,
        "actualizacion_geojson_utc": "2026-09-26T21:09:11.265186+00:00"
      }
    },
    {
      "type": "Feature",
      "geometry": {
        "type": "Point",
        "coordinates": [
          -68.30445,
          -33.17635
        ]
      },
      "properties": {
        "Nombre": "Alto Verde",
        "Coordenadas": "-33.17635, -68.30445",
        "Fecha": "26/09/2026 18:04",
        "Temperatura": "27,5",
        "Humedad": "14,8",
        "Punto_de_Rocio": "-1,6 °c",
        "Precipitacion": "0,00 mm",
        "Direccion_del_Viento": "120",
        "Velocidad_del_Viento": "1,8 km/h",
        "campo_15": "https://docs.google.com/spreadsheets/d/1MujiYSwhLQdPd90Qo8T2AVP3wb6Dd-dw3qcA7NwuLYA/pubhtml?gid=941863875&single=true",
        "Temperatura_num": 27.5,
        "Humedad_num": 14.8,
        "Punto_de_Rocio_num": -1.6,
        "Precipitacion_mm_num": 0.0,
        "Direccion_del_Viento_num": 120.0,
        "Velocidad_del_Viento_kmh_num": 1.8,
        "Latitud": -33.17635,
        "Longitud": -68.30445,
        "actualizacion_geojson_utc": "2026-09-26T21:09:11.265196+00:00"
      }
    },
    {
      "type": "Feature",
      "geometry": {
        "type": "Point",
        "coordinates": [
          -68.19166,
          -33.23983
        ]
      },
      "properties": {
        "Nombre": "Santa Rosa",
        "Coordenadas": "-33.23983, -68.19166",
        "Fecha": "26/09/2026 18:04",
        "Temperatura": "30,3",
        "Humedad": "15,5",
        "Punto_de_Rocio": "1,5 °c",
        "Precipitacion": "0,00 mm",
        "Direccion_del_Viento": "127",
        "Velocidad_del_Viento": "11,2 km/h",
        "campo_15": "https://docs.google.com/spreadsheets/d/1MujiYSwhLQdPd90Qo8T2AVP3wb6Dd-dw3qcA7NwuLYA/pubhtml?gid=590773000&single=true",
        "Temperatura_num": 30.3,
        "Humedad_num": 15.5,
        "Punto_de_Rocio_num": 1.5,
        "Precipitacion_mm_num": 0.0,
        "Direccion_del_Viento_num": 127.0,
        "Velocidad_del_Viento_kmh_num": 11.2,
        "Latitud": -33.23983,
        "Longitud": -68.19166,
        "actualizacion_geojson_utc": "2026-09-26T21:09:11.265204+00:00"
      }
    },
    {
      "type": "Feature",
      "geometry": {
        "type": "Point",
        "coordinates": [
          -68.44579,
          -33.26463
        ]
      },
      "properties": {
        "Nombre": "Campamentos",
        "Coordenadas": "-33.26463, -68.44579",
        "Fecha": "26/09/2026 18:04",
        "Temperatura": "28,7",
        "Humedad": "15,9",
        "Punto_de_Rocio": "0,3 °c",
        "Precipitacion": "0,00 mm",
        "Direccion_del_Viento": "97",
        "Velocidad_del_Viento": "6,8 km/h",
        "campo_15": "https://docs.google.com/spreadsheets/d/1MujiYSwhLQdPd90Qo8T2AVP3wb6Dd-dw3qcA7NwuLYA/pubhtml?gid=1940883687&single=true",
        "Temperatura_num": 28.7,
        "Humedad_num": 15.9,
        "Punto_de_Rocio_num": 0.3,
        "Precipitacion_mm_num": 0.0,
        "Direccion_del_Viento_num": 97.0,
        "Velocidad_del_Viento_kmh_num": 6.8,
        "Latitud": -33.26463,
        "Longitud": -68.44579,
        "actualizacion_geojson_utc": "2026-09-26T21:09:11.265211+00:00"
      }
    },
    {
      "type": "Feature",
      "geometry": {
        "type": "Point",
        "coordinates": [
          -68.21388,
          -33.09579
        ]
      },
      "properties": {
        "Nombre": "El Marcado",
        "Coordenadas": "-33.09579, -68.21388",
        "Fecha": "26/09/2026 18:04",
        "Temperatura": "30,1",
        "Humedad": "13,8",
        "Punto_de_Rocio": "-0,5 °c",
        "Precipitacion": "0,00 mm",
        "Direccion_del_Viento": "145",
        "Velocidad_del_Viento": "5,0 km/h",
        "campo_15": "https://docs.google.com/spreadsheets/d/1MujiYSwhLQdPd90Qo8T2AVP3wb6Dd-dw3qcA7NwuLYA/pubhtml?gid=552850436&single=true",
        "Temperatura_num": 30.1,
        "Humedad_num": 13.8,
        "Punto_de_Rocio_num": -0.5,
        "Precipitacion_mm_num": 0.0,
        "Direccion_del_Viento_num": 145.0,
        "Velocidad_del_Viento_kmh_num": 5.0,
        "Latitud": -33.09579,
        "Longitud": -68.21388,
        "actualizacion_geojson_utc": "2026-09-26T21:09:11.265219+00:00"
      }
    },
    {
      "type": "Feature",
      "geometry": {
        "type": "Point",
        "coordinates": [
          -68.38836,
          -32.89344
        ]
      },
      "properties": {
        "Nombre": "Tres Porteñas",
        "Coordenadas": "-32.89344, -68.38836",
        "Fecha": "26/09/2026 18:05",
        "Temperatura": "28,5",
        "Humedad": "12,3",
        "Punto_de_Rocio": "-3,3 °c",
        "Precipitacion": "0,00 mm",
        "Direccion_del_Viento": "150",
        "Velocidad_del_Viento": "4,0 km/h",
        "campo_15": "https://docs.google.com/spreadsheets/d/1MujiYSwhLQdPd90Qo8T2AVP3wb6Dd-dw3qcA7NwuLYA/pubhtml?gid=410592820&single=true",
        "Temperatura_num": 28.5,
        "Humedad_num": 12.3,
        "Punto_de_Rocio_num": -3.3,
        "Precipitacion_mm_num": 0.0,
        "Direccion_del_Viento_num": 150.0,
        "Velocidad_del_Viento_kmh_num": 4.0,
        "Latitud": -32.89344,
        "Longitud": -68.38836,
        "actualizacion_geojson_utc": "2026-09-26T21:09:11.265226+00:00"
      }
    },
    {
      "type": "Feature",
      "geometry": {
        "type": "Point",
        "coordinates": [
          -68.74828,
          -33.01465
        ]
      },
      "properties": {
        "Nombre": "Russell",
        "Coordenadas": "-33.01465, -68.74828",
        "Fecha": "26/09/2026 18:03",
        "Temperatura": "27,8",
        "Humedad": "18,7",
        "Punto_de_Rocio": "1,8 °c",
        "Precipitacion": "0,00 mm",
        "Direccion_del_Viento": "110",
        "Velocidad_del_Viento": "0,0 km/h",
        "campo_15": "https://docs.google.com/spreadsheets/d/1MujiYSwhLQdPd90Qo8T2AVP3wb6Dd-dw3qcA7NwuLYA/pubhtml?gid=867167681&single=true",
        "Temperatura_num": 27.8,
        "Humedad_num": 18.7,
        "Punto_de_Rocio_num": 1.8,
        "Precipitacion_mm_num": 0.0,
        "Direccion_del_Viento_num": 110.0,
        "Velocidad_del_Viento_kmh_num": 0.0,
        "Latitud": -33.01465,
        "Longitud": -68.74828,
        "actualizacion_geojson_utc": "2026-09-26T21:09:11.265233+00:00"
      }
    },
    {
      "type": "Feature",
      "geometry": {
        "type": "Point",
        "coordinates": [
          -68.91601,
          -33.1319
        ]
      },
      "properties": {
        "Nombre": "Perdriel",
        "Coordenadas": "-33.1319, -68.91601",
        "Fecha": "26/09/2026 18:05",
        "Temperatura": "27,2",
        "Humedad": null,
        "Punto_de_Rocio": "-1,2 °c",
        "Precipitacion": "0,00 mm",
        "Direccion_del_Viento": "9",
        "Velocidad_del_Viento": "3,2 km/h",
        "campo_15": "https://docs.google.com/spreadsheets/d/1MujiYSwhLQdPd90Qo8T2AVP3wb6Dd-dw3qcA7NwuLYA/pubhtml?gid=1306897260&single=true",
        "Temperatura_num": 27.2,
        "Humedad_num": null,
        "Punto_de_Rocio_num": -1.2,
        "Precipitacion_mm_num": 0.0,
        "Direccion_del_Viento_num": 9.0,
        "Velocidad_del_Viento_kmh_num": 3.2,
        "Latitud": -33.1319,
        "Longitud": -68.91601,
        "actualizacion_geojson_utc": "2026-09-26T21:09:11.265240+00:00"
      }
    },
    {
      "type": "Feature",
      "geometry": {
        "type": "Point",
        "coordinates": [
          -68.60047,
          -32.83289
        ]
      },
      "properties": {
        "Nombre": "Las Violetas",
        "Coordenadas": "-32.83289, -68.60047",
        "Fecha": "26/09/2026 18:05",
        "Temperatura": "29,4",
        "Humedad": null,
        "Punto_de_Rocio": "-0,6 °c",
        "Precipitacion": "0,00 mm",
        "Direccion_del_Viento": "148",
        "Velocidad_del_Viento": "5,8 km/h",
        "campo_15": "https://docs.google.com/spreadsheets/d/1MujiYSwhLQdPd90Qo8T2AVP3wb6Dd-dw3qcA7NwuLYA/pubhtml?gid=894121918&single=true",
        "Temperatura_num": 29.4,
        "Humedad_num": null,
        "Punto_de_Rocio_num": -0.6,
        "Precipitacion_mm_num": 0.0,
        "Direccion_del_Viento_num": 148.0,
        "Velocidad_del_Viento_kmh_num": 5.8,
        "Latitud": -32.83289,
        "Longitud": -68.60047,
        "actualizacion_geojson_utc": "2026-09-26T21:09:11.265248+00:00"
      }
    },
    {
      "type": "Feature",
      "geometry": {
        "type": "Point",
        "coordinates": [
          -68.31388,
          -32.64611
        ]
      },
      "properties": {
        "Nombre": "Gustavo Andre",
        "Coordenadas": "-32.64611, -68.31388",
        "Fecha": "26/09/2026 18:03",
        "Temperatura": "29,8",
        "Humedad": "14",
        "Punto_de_Rocio": "-0,5 °c",
        "Precipitacion": "0,00 mm",
        "Direccion_del_Viento": "181",
        "Velocidad_del_Viento": "11,5 km/h",
        "campo_15": "https://docs.google.com/spreadsheets/d/1MujiYSwhLQdPd90Qo8T2AVP3wb6Dd-dw3qcA7NwuLYA/pubhtml?gid=696914969&single=true",
        "Temperatura_num": 29.8,
        "Humedad_num": 14.0,
        "Punto_de_Rocio_num": -0.5,
        "Precipitacion_mm_num": 0.0,
        "Direccion_del_Viento_num": 181.0,
        "Velocidad_del_Viento_kmh_num": 11.5,
        "Latitud": -32.64611,
        "Longitud": -68.31388,
        "actualizacion_geojson_utc": "2026-09-26T21:09:11.265255+00:00"
      }
    },
    {
      "type": "Feature",
      "geometry": {
        "type": "Point",
        "coordinates": [
          -68.59868,
          -32.59714
        ]
      },
      "properties": {
        "Nombre": "Jocoli",
        "Coordenadas": "-32.59714, -68.59868",
        "Fecha": "26/09/2026 18:05",
        "Temperatura": "29,7",
        "Humedad": null,
        "Punto_de_Rocio": "-1,0 °c",
        "Precipitacion": "0,00 mm",
        "Direccion_del_Viento": "100",
        "Velocidad_del_Viento": "7,2 km/h",
        "campo_15": "https://docs.google.com/spreadsheets/d/1MujiYSwhLQdPd90Qo8T2AVP3wb6Dd-dw3qcA7NwuLYA/pubhtml?gid=853475469&single=true",
        "Temperatura_num": 29.7,
        "Humedad_num": null,
        "Punto_de_Rocio_num": -1.0,
        "Precipitacion_mm_num": 0.0,
        "Direccion_del_Viento_num": 100.0,
        "Velocidad_del_Viento_kmh_num": 7.2,
        "Latitud": -32.59714,
        "Longitud": -68.59868,
        "actualizacion_geojson_utc": "2026-09-26T21:09:11.265261+00:00"
      }
    },
    {
      "type": "Feature",
      "geometry": {
        "type": "Point",
        "coordinates": [
          -69.039364,
          -33.563946
        ]
      },
      "properties": {
        "Nombre": "Tunuyan",
        "Coordenadas": "-33.563946, -69.039364",
        "Fecha": "26/09/2026 18:05",
        "Temperatura": "25,8",
        "Humedad": "16,2",
        "Punto_de_Rocio": "-1,8 °c",
        "Precipitacion": "0,00 mm",
        "Direccion_del_Viento": "273",
        "Velocidad_del_Viento": "7,9 km/h",
        "campo_15": "https://docs.google.com/spreadsheets/d/1PhWkz3WAtwOwPC3nE6TeOAOtjIGhmdkIVwHy3p5Uaj8/pubhtml?gid=0&single=true",
        "Temperatura_num": 25.8,
        "Humedad_num": 16.2,
        "Punto_de_Rocio_num": -1.8,
        "Precipitacion_mm_num": 0.0,
        "Direccion_del_Viento_num": 273.0,
        "Velocidad_del_Viento_kmh_num": 7.9,
        "Latitud": -33.563946,
        "Longitud": -69.039364,
        "actualizacion_geojson_utc": "2026-09-26T21:09:11.265268+00:00"
      }
    },
    {
      "type": "Feature",
      "geometry": {
        "type": "Point",
        "coordinates": [
          -69.07336,
          -33.70657
        ]
      },
      "properties": {
        "Nombre": "La Consulta",
        "Coordenadas": "-33.70657, -69.07336",
        "Fecha": "26/09/2026 18:05",
        "Temperatura": "25,8",
        "Humedad": "16",
        "Punto_de_Rocio": "-1,8 °c",
        "Precipitacion": "0,00 mm",
        "Direccion_del_Viento": "273",
        "Velocidad_del_Viento": "7,9 km/h",
        "campo_15": "https://docs.google.com/spreadsheets/d/1PhWkz3WAtwOwPC3nE6TeOAOtjIGhmdkIVwHy3p5Uaj8/pubhtml?gid=1529584973&single=true",
        "Temperatura_num": 25.8,
        "Humedad_num": 16.0,
        "Punto_de_Rocio_num": -1.8,
        "Precipitacion_mm_num": 0.0,
        "Direccion_del_Viento_num": 273.0,
        "Velocidad_del_Viento_kmh_num": 7.9,
        "Latitud": -33.70657,
        "Longitud": -69.07336,
        "actualizacion_geojson_utc": "2026-09-26T21:09:11.265276+00:00"
      }
    },
    {
      "type": "Feature",
      "geometry": {
        "type": "Point",
        "coordinates": [
          -69.16134,
          -33.64461
        ]
      },
      "properties": {
        "Nombre": "Vista Flores",
        "Coordenadas": "-33.64461, -69.16134",
        "Fecha": "26/09/2026 18:05",
        "Temperatura": "27,7",
        "Humedad": "15,5",
        "Punto_de_Rocio": "-0,9 °c",
        "Precipitacion": "0,00 mm",
        "Direccion_del_Viento": "4",
        "Velocidad_del_Viento": "0,0 km/h",
        "campo_15": "https://docs.google.com/spreadsheets/d/1PhWkz3WAtwOwPC3nE6TeOAOtjIGhmdkIVwHy3p5Uaj8/pubhtml?gid=1015607938&single=true",
        "Temperatura_num": 27.7,
        "Humedad_num": 15.5,
        "Punto_de_Rocio_num": -0.9,
        "Precipitacion_mm_num": 0.0,
        "Direccion_del_Viento_num": 4.0,
        "Velocidad_del_Viento_kmh_num": 0.0,
        "Latitud": -33.64461,
        "Longitud": -69.16134,
        "actualizacion_geojson_utc": "2026-09-26T21:09:11.265282+00:00"
      }
    },
    {
      "type": "Feature",
      "geometry": {
        "type": "Point",
        "coordinates": [
          -69.201884,
          -33.508459
        ]
      },
      "properties": {
        "Nombre": "Agua Amarga",
        "Coordenadas": "-33.508459, -69.201884",
        "Fecha": "26/09/2026 18:06",
        "Temperatura": "26,2",
        "Humedad": null,
        "Punto_de_Rocio": "-1,0 °c",
        "Precipitacion": "0,00 mm",
        "Direccion_del_Viento": "25",
        "Velocidad_del_Viento": "5,0 km/h",
        "campo_15": "https://docs.google.com/spreadsheets/d/1PhWkz3WAtwOwPC3nE6TeOAOtjIGhmdkIVwHy3p5Uaj8/pubhtml?gid=934687695&single=true",
        "Temperatura_num": 26.2,
        "Humedad_num": null,
        "Punto_de_Rocio_num": -1.0,
        "Precipitacion_mm_num": 0.0,
        "Direccion_del_Viento_num": 25.0,
        "Velocidad_del_Viento_kmh_num": 5.0,
        "Latitud": -33.508459,
        "Longitud": -69.201884,
        "actualizacion_geojson_utc": "2026-09-26T21:09:11.265288+00:00"
      }
    },
    {
      "type": "Feature",
      "geometry": {
        "type": "Point",
        "coordinates": [
          -69.10423,
          -33.80534
        ]
      },
      "properties": {
        "Nombre": "El Cepillo",
        "Coordenadas": "-33.80534, -69.10423",
        "Fecha": "26/09/2026 18:05",
        "Temperatura": "24,6",
        "Humedad": "18",
        "Punto_de_Rocio": "-1,2 °c",
        "Precipitacion": "0,00 mm",
        "Direccion_del_Viento": "318",
        "Velocidad_del_Viento": "5,8 km/h",
        "campo_15": "https://docs.google.com/spreadsheets/d/1PhWkz3WAtwOwPC3nE6TeOAOtjIGhmdkIVwHy3p5Uaj8/pubhtml?gid=885595981&single=true",
        "Temperatura_num": 24.6,
        "Humedad_num": 18.0,
        "Punto_de_Rocio_num": -1.2,
        "Precipitacion_mm_num": 0.0,
        "Direccion_del_Viento_num": 318.0,
        "Velocidad_del_Viento_kmh_num": 5.8,
        "Latitud": -33.80534,
        "Longitud": -69.10423,
        "actualizacion_geojson_utc": "2026-09-26T21:09:11.265294+00:00"
      }
    },
    {
      "type": "Feature",
      "geometry": {
        "type": "Point",
        "coordinates": [
          -68.01537,
          -34.64713
        ]
      },
      "properties": {
        "Nombre": "La Llave",
        "Coordenadas": "-34.64713, -68.01537",
        "Fecha": "26/09/2026 18:06",
        "Temperatura": "29,4",
        "Humedad": "13,8",
        "Punto_de_Rocio": "-1,2 °c",
        "Precipitacion": "0,00 mm",
        "Direccion_del_Viento": "121",
        "Velocidad_del_Viento": "9,0 km/h",
        "campo_15": "https://docs.google.com/spreadsheets/d/1Ww_JDk53a6hO_16DAwSb2JNeGYk0dT0z_hzSeZYhsUI/pubhtml?gid=0&single=true",
        "Temperatura_num": 29.4,
        "Humedad_num": 13.8,
        "Punto_de_Rocio_num": -1.2,
        "Precipitacion_mm_num": 0.0,
        "Direccion_del_Viento_num": 121.0,
        "Velocidad_del_Viento_kmh_num": 9.0,
        "Latitud": -34.64713,
        "Longitud": -68.01537,
        "actualizacion_geojson_utc": "2026-09-26T21:09:11.265301+00:00"
      }
    },
    {
      "type": "Feature",
      "geometry": {
        "type": "Point",
        "coordinates": [
          -68.28583,
          -34.51027
        ]
      },
      "properties": {
        "Nombre": "El Cerrito",
        "Coordenadas": "-34.51027, -68.28583",
        "Fecha": "26/09/2026 18:06",
        "Temperatura": "26,2",
        "Humedad": "18,7",
        "Punto_de_Rocio": "0,4 °c",
        "Precipitacion": "0,00 mm",
        "Direccion_del_Viento": "146",
        "Velocidad_del_Viento": "6,5 km/h",
        "campo_15": "https://docs.google.com/spreadsheets/d/1Ww_JDk53a6hO_16DAwSb2JNeGYk0dT0z_hzSeZYhsUI/pubhtml?gid=981574807&single=true",
        "Temperatura_num": 26.2,
        "Humedad_num": 18.7,
        "Punto_de_Rocio_num": 0.4,
        "Precipitacion_mm_num": 0.0,
        "Direccion_del_Viento_num": 146.0,
        "Velocidad_del_Viento_kmh_num": 6.5,
        "Latitud": -34.51027,
        "Longitud": -68.28583,
        "actualizacion_geojson_utc": "2026-09-26T21:09:11.265307+00:00"
      }
    },
    {
      "type": "Feature",
      "geometry": {
        "type": "Point",
        "coordinates": [
          -67.51555,
          -34.98214
        ]
      },
      "properties": {
        "Nombre": "Bowen",
        "Coordenadas": "-34.98214, -67.51555",
        "Fecha": "26/09/2026 18:07",
        "Temperatura": "32,0",
        "Humedad": null,
        "Punto_de_Rocio": "3,2 °c",
        "Precipitacion": "0,00 mm",
        "Direccion_del_Viento": "91",
        "Velocidad_del_Viento": "7,6 km/h",
        "campo_15": "https://docs.google.com/spreadsheets/d/1Ww_JDk53a6hO_16DAwSb2JNeGYk0dT0z_hzSeZYhsUI/pubhtml?gid=1529584973&single=true",
        "Temperatura_num": 32.0,
        "Humedad_num": null,
        "Punto_de_Rocio_num": 3.2,
        "Precipitacion_mm_num": 0.0,
        "Direccion_del_Viento_num": 91.0,
        "Velocidad_del_Viento_kmh_num": 7.6,
        "Latitud": -34.98214,
        "Longitud": -67.51555,
        "actualizacion_geojson_utc": "2026-09-26T21:09:11.265314+00:00"
      }
    },
    {
      "type": "Feature",
      "geometry": {
        "type": "Point",
        "coordinates": [
          -67.59527,
          -34.91472
        ]
      },
      "properties": {
        "Nombre": "El Ceibo",
        "Coordenadas": "-34.91472, -67.59527",
        "Fecha": "26/09/2026 18:07",
        "Temperatura": "31,3",
        "Humedad": "16,8",
        "Punto_de_Rocio": "3,1 °c",
        "Precipitacion": "0,00 mm",
        "Direccion_del_Viento": "201",
        "Velocidad_del_Viento": "4,7 km/h",
        "campo_15": "https://docs.google.com/spreadsheets/d/1Ww_JDk53a6hO_16DAwSb2JNeGYk0dT0z_hzSeZYhsUI/pubhtml?gid=1015607938&single=true",
        "Temperatura_num": 31.3,
        "Humedad_num": 16.8,
        "Punto_de_Rocio_num": 3.1,
        "Precipitacion_mm_num": 0.0,
        "Direccion_del_Viento_num": 201.0,
        "Velocidad_del_Viento_kmh_num": 4.7,
        "Latitud": -34.91472,
        "Longitud": -67.59527,
        "actualizacion_geojson_utc": "2026-09-26T21:09:11.265321+00:00"
      }
    },
    {
      "type": "Feature",
      "geometry": {
        "type": "Point",
        "coordinates": [
          -67.72277,
          -34.87194
        ]
      },
      "properties": {
        "Nombre": "Palermo Chico",
        "Coordenadas": "-34.87194, -67.72277",
        "Fecha": "26/09/2026 18:06",
        "Temperatura": "28,7",
        "Humedad": "13,8",
        "Punto_de_Rocio": "-1,7 °c",
        "Precipitacion": "0,00 mm",
        "Direccion_del_Viento": "140",
        "Velocidad_del_Viento": "5,0 km/h",
        "campo_15": "https://docs.google.com/spreadsheets/d/1Ww_JDk53a6hO_16DAwSb2JNeGYk0dT0z_hzSeZYhsUI/pubhtml?gid=934687695&single=true",
        "Temperatura_num": 28.7,
        "Humedad_num": 13.8,
        "Punto_de_Rocio_num": -1.7,
        "Precipitacion_mm_num": 0.0,
        "Direccion_del_Viento_num": 140.0,
        "Velocidad_del_Viento_kmh_num": 5.0,
        "Latitud": -34.87194,
        "Longitud": -67.72277,
        "actualizacion_geojson_utc": "2026-09-26T21:09:11.265327+00:00"
      }
    },
    {
      "type": "Feature",
      "geometry": {
        "type": "Point",
        "coordinates": [
          -68.46981,
          -34.64142
        ]
      },
      "properties": {
        "Nombre": "Cuadro Benegas",
        "Coordenadas": "-34.64142, -68.46981",
        "Fecha": "26/09/2026 18:07",
        "Temperatura": "26,1",
        "Humedad": "19",
        "Punto_de_Rocio": "0,6 °c",
        "Precipitacion": "0,00 mm",
        "Direccion_del_Viento": "119",
        "Velocidad_del_Viento": "5,8 km/h",
        "campo_15": "https://docs.google.com/spreadsheets/d/1Ww_JDk53a6hO_16DAwSb2JNeGYk0dT0z_hzSeZYhsUI/pubhtml?gid=1384831851&single=true",
        "Temperatura_num": 26.1,
        "Humedad_num": 19.0,
        "Punto_de_Rocio_num": 0.6,
        "Precipitacion_mm_num": 0.0,
        "Direccion_del_Viento_num": 119.0,
        "Velocidad_del_Viento_kmh_num": 5.8,
        "Latitud": -34.64142,
        "Longitud": -68.46981,
        "actualizacion_geojson_utc": "2026-09-26T21:09:11.265334+00:00"
      }
    },
    {
      "type": "Feature",
      "geometry": {
        "type": "Point",
        "coordinates": [
          -68.4234,
          -34.53346
        ]
      },
      "properties": {
        "Nombre": "Las Paredes",
        "Coordenadas": "-34.53346, -68.4234",
        "Fecha": "26/09/2026 18:07",
        "Temperatura": "26,4",
        "Humedad": "17,3",
        "Punto_de_Rocio": "-0,5 °c",
        "Precipitacion": "0,00 mm",
        "Direccion_del_Viento": "135",
        "Velocidad_del_Viento": "7,9 km/h",
        "campo_15": "https://docs.google.com/spreadsheets/d/1Ww_JDk53a6hO_16DAwSb2JNeGYk0dT0z_hzSeZYhsUI/pubhtml?gid=1927766814&single=true",
        "Temperatura_num": 26.4,
        "Humedad_num": 17.3,
        "Punto_de_Rocio_num": -0.5,
        "Precipitacion_mm_num": 0.0,
        "Direccion_del_Viento_num": 135.0,
        "Velocidad_del_Viento_kmh_num": 7.9,
        "Latitud": -34.53346,
        "Longitud": -68.4234,
        "actualizacion_geojson_utc": "2026-09-26T21:09:11.265340+00:00"
      }
    },
    {
      "type": "Feature",
      "geometry": {
        "type": "Point",
        "coordinates": [
          -67.89835,
          -34.8327
        ]
      },
      "properties": {
        "Nombre": "Villa Atuel",
        "Coordenadas": "-34.8327, -67.89835",
        "Fecha": "26/09/2026 18:06",
        "Temperatura": "28,7",
        "Humedad": "13,8",
        "Punto_de_Rocio": "-1,7 °c",
        "Precipitacion": "0,00 mm",
        "Direccion_del_Viento": "112",
        "Velocidad_del_Viento": "0,7 km/h",
        "campo_15": "https://docs.google.com/spreadsheets/d/1Ww_JDk53a6hO_16DAwSb2JNeGYk0dT0z_hzSeZYhsUI/pubhtml?gid=1255335861&single=true",
        "Temperatura_num": 28.7,
        "Humedad_num": 13.8,
        "Punto_de_Rocio_num": -1.7,
        "Precipitacion_mm_num": 0.0,
        "Direccion_del_Viento_num": 112.0,
        "Velocidad_del_Viento_kmh_num": 0.7,
        "Latitud": -34.8327,
        "Longitud": -67.89835,
        "actualizacion_geojson_utc": "2026-09-26T21:09:11.265346+00:00"
      }
    },
    {
      "type": "Feature",
      "geometry": {
        "type": "Point",
        "coordinates": [
          -67.42999,
          -34.93222
        ]
      },
      "properties": {
        "Nombre": "La Escandinava",
        "Coordenadas": "-34.93222, -67.42999",
        "Fecha": "26/09/2026 18:07",
        "Temperatura": "32,3",
        "Humedad": "14,4",
        "Punto_de_Rocio": "1,7 °c",
        "Precipitacion": "0,00 mm",
        "Direccion_del_Viento": "157",
        "Velocidad_del_Viento": "4,0 km/h",
        "campo_15": "https://docs.google.com/spreadsheets/d/1Ww_JDk53a6hO_16DAwSb2JNeGYk0dT0z_hzSeZYhsUI/pubhtml?gid=945278199&single=true",
        "Temperatura_num": 32.3,
        "Humedad_num": 14.4,
        "Punto_de_Rocio_num": 1.7,
        "Precipitacion_mm_num": 0.0,
        "Direccion_del_Viento_num": 157.0,
        "Velocidad_del_Viento_kmh_num": 4.0,
        "Latitud": -34.93222,
        "Longitud": -67.42999,
        "actualizacion_geojson_utc": "2026-09-26T21:09:11.265354+00:00"
      }
    },
    {
      "type": "Feature",
      "geometry": {
        "type": "Point",
        "coordinates": [
          -67.63277,
          -34.99722
        ]
      },
      "properties": {
        "Nombre": "La Marzolina",
        "Coordenadas": "-34.99722, -67.63277",
        "Fecha": "26/09/2026 18:07",
        "Temperatura": "29,8",
        "Humedad": "14,8",
        "Punto_de_Rocio": "0,1 °c",
        "Precipitacion": "0,00 mm",
        "Direccion_del_Viento": "194",
        "Velocidad_del_Viento": "0,0 km/h",
        "campo_15": "https://docs.google.com/spreadsheets/d/1Ww_JDk53a6hO_16DAwSb2JNeGYk0dT0z_hzSeZYhsUI/pubhtml?gid=1933723527&single=true",
        "Temperatura_num": 29.8,
        "Humedad_num": 14.8,
        "Punto_de_Rocio_num": 0.1,
        "Precipitacion_mm_num": 0.0,
        "Direccion_del_Viento_num": 194.0,
        "Velocidad_del_Viento_kmh_num": 0.0,
        "Latitud": -34.99722,
        "Longitud": -67.63277,
        "actualizacion_geojson_utc": "2026-09-26T21:09:11.265361+00:00"
      }
    },
    {
      "type": "Feature",
      "geometry": {
        "type": "Point",
        "coordinates": [
          -68.464505,
          -33.072353
        ]
      },
      "properties": {
        "Nombre": "San Martin",
        "Coordenadas": "-33.072353, -68.464505",
        "Fecha": "26/09/2026 18:04",
        "Temperatura": "29,0",
        "Humedad": "13,9",
        "Punto_de_Rocio": "-1,3 °c",
        "Precipitacion": "0,00 mm",
        "Direccion_del_Viento": "79",
        "Velocidad_del_Viento": "7,2 km/h",
        "campo_15": "https://docs.google.com/spreadsheets/d/1MujiYSwhLQdPd90Qo8T2AVP3wb6Dd-dw3qcA7NwuLYA/pubhtml?gid=1700345372&single=true",
        "Temperatura_num": 29.0,
        "Humedad_num": 13.9,
        "Punto_de_Rocio_num": -1.3,
        "Precipitacion_mm_num": 0.0,
        "Direccion_del_Viento_num": 79.0,
        "Velocidad_del_Viento_kmh_num": 7.2,
        "Latitud": -33.072353,
        "Longitud": -68.464505,
        "actualizacion_geojson_utc": "2026-09-26T21:09:11.265368+00:00"
      }
    },
    {
      "type": "Feature",
      "geometry": {
        "type": "Point",
        "coordinates": [
          -69.10838,
          -33.61922
        ]
      },
      "properties": {
        "Nombre": "Colonia las Rosas",
        "Coordenadas": "-33.61922, -69.10838",
        "Fecha": "26/09/2026 18:05",
        "Temperatura": "27,7",
        "Humedad": "15,5",
        "Punto_de_Rocio": "-0,9 °c",
        "Precipitacion": "0,00 mm",
        "Direccion_del_Viento": "4",
        "Velocidad_del_Viento": "0,0 km/h",
        "campo_15": "https://docs.google.com/spreadsheets/d/1PhWkz3WAtwOwPC3nE6TeOAOtjIGhmdkIVwHy3p5Uaj8/pubhtml?gid=709552682&single=true",
        "Temperatura_num": 27.7,
        "Humedad_num": 15.5,
        "Punto_de_Rocio_num": -0.9,
        "Precipitacion_mm_num": 0.0,
        "Direccion_del_Viento_num": 4.0,
        "Velocidad_del_Viento_kmh_num": 0.0,
        "Latitud": -33.61922,
        "Longitud": -69.10838,
        "actualizacion_geojson_utc": "2026-09-26T21:09:11.265374+00:00"
      }
    },
    {
      "type": "Feature",
      "geometry": {
        "type": "Point",
        "coordinates": [
          -69.04251,
          -33.43319
        ]
      },
      "properties": {
        "Nombre": "Dubois",
        "Coordenadas": "-33.43319, -69.04251",
        "Fecha": "26/09/2026 18:05",
        "Temperatura": "27,9",
        "Humedad": "10,2",
        "Punto_de_Rocio": "-6,3 °c",
        "Precipitacion": "0,00 mm",
        "Direccion_del_Viento": "58",
        "Velocidad_del_Viento": "5,8 km/h",
        "campo_15": "https://docs.google.com/spreadsheets/d/1PhWkz3WAtwOwPC3nE6TeOAOtjIGhmdkIVwHy3p5Uaj8/pubhtml?gid=428487747&single=true",
        "Temperatura_num": 27.9,
        "Humedad_num": 10.2,
        "Punto_de_Rocio_num": -6.3,
        "Precipitacion_mm_num": 0.0,
        "Direccion_del_Viento_num": 58.0,
        "Velocidad_del_Viento_kmh_num": 5.8,
        "Latitud": -33.43319,
        "Longitud": -69.04251,
        "actualizacion_geojson_utc": "2026-09-26T21:09:11.265382+00:00"
      }
    },
    {
      "type": "Feature",
      "geometry": {
        "type": "Point",
        "coordinates": [
          -69.15766,
          -33.34669
        ]
      },
      "properties": {
        "Nombre": "El Peral",
        "Coordenadas": "-33.34669, -69.15766",
        "Fecha": "26/09/2026 18:05",
        "Temperatura": "26,4",
        "Humedad": "17,2",
        "Punto_de_Rocio": "-0,5 °c",
        "Precipitacion": "0,00 mm",
        "Direccion_del_Viento": "33",
        "Velocidad_del_Viento": "11,2 km/h",
        "campo_15": "https://docs.google.com/spreadsheets/d/1PhWkz3WAtwOwPC3nE6TeOAOtjIGhmdkIVwHy3p5Uaj8/pubhtml?gid=930117608&single=true",
        "Temperatura_num": 26.4,
        "Humedad_num": 17.2,
        "Punto_de_Rocio_num": -0.5,
        "Precipitacion_mm_num": 0.0,
        "Direccion_del_Viento_num": 33.0,
        "Velocidad_del_Viento_kmh_num": 11.2,
        "Latitud": -33.34669,
        "Longitud": -69.15766,
        "actualizacion_geojson_utc": "2026-09-26T21:09:11.265390+00:00"
      }
    },
    {
      "type": "Feature",
      "geometry": {
        "type": "Point",
        "coordinates": [
          -69.00188,
          -33.51461
        ]
      },
      "properties": {
        "Nombre": "Salentein",
        "Coordenadas": "-33.51461, -69.00188",
        "Fecha": "26/09/2026 18:05",
        "Temperatura": "27,7",
        "Humedad": "21,4",
        "Punto_de_Rocio": "3,6 °c",
        "Precipitacion": "0,00 mm",
        "Direccion_del_Viento": "12",
        "Velocidad_del_Viento": "7,6 km/h",
        "campo_15": "https://docs.google.com/spreadsheets/d/1PhWkz3WAtwOwPC3nE6TeOAOtjIGhmdkIVwHy3p5Uaj8/pubhtml?gid=705838184&single=true",
        "Temperatura_num": 27.7,
        "Humedad_num": 21.4,
        "Punto_de_Rocio_num": 3.6,
        "Precipitacion_mm_num": 0.0,
        "Direccion_del_Viento_num": 12.0,
        "Velocidad_del_Viento_kmh_num": 7.6,
        "Latitud": -33.51461,
        "Longitud": -69.00188,
        "actualizacion_geojson_utc": "2026-09-26T21:09:11.265398+00:00"
      }
    },
    {
      "type": "Feature",
      "geometry": {
        "type": "Point",
        "coordinates": [
          -67.55712,
          -35.01066
        ]
      },
      "properties": {
        "Nombre": "Bowen (Escartin)",
        "Coordenadas": "-35.01066, -67.55712",
        "Fecha": "26/09/2026 18:07",
        "Temperatura": "28,0",
        "Humedad": "14,8",
        "Punto_de_Rocio": "-1,3 °c",
        "Precipitacion": "0,00 mm",
        "Direccion_del_Viento": "121",
        "Velocidad_del_Viento": "4,0 km/h",
        "campo_15": "https://docs.google.com/spreadsheets/d/1Ww_JDk53a6hO_16DAwSb2JNeGYk0dT0z_hzSeZYhsUI/pubhtml?gid=231594073&single=true",
        "Temperatura_num": 28.0,
        "Humedad_num": 14.8,
        "Punto_de_Rocio_num": -1.3,
        "Precipitacion_mm_num": 0.0,
        "Direccion_del_Viento_num": 121.0,
        "Velocidad_del_Viento_kmh_num": 4.0,
        "Latitud": -35.01066,
        "Longitud": -67.55712,
        "actualizacion_geojson_utc": "2026-09-26T21:09:11.265405+00:00"
      }
    },
    {
      "type": "Feature",
      "geometry": {
        "type": "Point",
        "coordinates": [
          -68.714465,
          -33.307417
        ]
      },
      "properties": {
        "Nombre": "Carrizal",
        "Coordenadas": "-33.307417, -68.714465",
        "Fecha": "26/09/2026 18:04",
        "Temperatura": "27,9",
        "Humedad": "13,2",
        "Punto_de_Rocio": "-2,9 °c",
        "Precipitacion": "0,00 mm",
        "Direccion_del_Viento": "76",
        "Velocidad_del_Viento": "7,9 km/h",
        "campo_15": "https://docs.google.com/spreadsheets/d/1MujiYSwhLQdPd90Qo8T2AVP3wb6Dd-dw3qcA7NwuLYA/pubhtml?gid=85897335&single=true",
        "Temperatura_num": 27.9,
        "Humedad_num": 13.2,
        "Punto_de_Rocio_num": -2.9,
        "Precipitacion_mm_num": 0.0,
        "Direccion_del_Viento_num": 76.0,
        "Velocidad_del_Viento_kmh_num": 7.9,
        "Latitud": -33.307417,
        "Longitud": -68.714465,
        "actualizacion_geojson_utc": "2026-09-26T21:09:11.265411+00:00"
      }
    },
    {
      "type": "Feature",
      "geometry": {
        "type": "Point",
        "coordinates": [
          -68.313515,
          -34.739191
        ]
      },
      "properties": {
        "Nombre": "La Correina",
        "Coordenadas": "-34.739191, -68.313515",
        "Fecha": "26/09/2026 18:07",
        "Temperatura": "25,8",
        "Humedad": "17",
        "Punto_de_Rocio": "-1,2 °c",
        "Precipitacion": "0,00 mm",
        "Direccion_del_Viento": "111",
        "Velocidad_del_Viento": "7,2 km/h",
        "campo_15": "https://docs.google.com/spreadsheets/d/1Ww_JDk53a6hO_16DAwSb2JNeGYk0dT0z_hzSeZYhsUI/pubhtml?gid=1551953771&single=true",
        "Temperatura_num": 25.8,
        "Humedad_num": 17.0,
        "Punto_de_Rocio_num": -1.2,
        "Precipitacion_mm_num": 0.0,
        "Direccion_del_Viento_num": 111.0,
        "Velocidad_del_Viento_kmh_num": 7.2,
        "Latitud": -34.739191,
        "Longitud": -68.313515,
        "actualizacion_geojson_utc": "2026-09-26T21:09:11.265418+00:00"
      }
    },
    {
      "type": "Feature",
      "geometry": {
        "type": "Point",
        "coordinates": [
          -68.09249,
          -33.392334
        ]
      },
      "properties": {
        "Nombre": "Las Catitas",
        "Coordenadas": "-33.392334, -68.092490",
        "Fecha": "26/09/2026 18:04",
        "Temperatura": "30,6",
        "Humedad": "12,3",
        "Punto_de_Rocio": "-1,7 °c",
        "Precipitacion": "0,00 mm",
        "Direccion_del_Viento": "131",
        "Velocidad_del_Viento": "5,8 km/h",
        "campo_15": "https://docs.google.com/spreadsheets/d/1MujiYSwhLQdPd90Qo8T2AVP3wb6Dd-dw3qcA7NwuLYA/pubhtml?gid=2055996082&single=true",
        "Temperatura_num": 30.6,
        "Humedad_num": 12.3,
        "Punto_de_Rocio_num": -1.7,
        "Precipitacion_mm_num": 0.0,
        "Direccion_del_Viento_num": 131.0,
        "Velocidad_del_Viento_kmh_num": 5.8,
        "Latitud": -33.392334,
        "Longitud": -68.09249,
        "actualizacion_geojson_utc": "2026-09-26T21:09:11.265424+00:00"
      }
    },
    {
      "type": "Feature",
      "geometry": {
        "type": "Point",
        "coordinates": [
          -67.85475,
          -33.3881
        ]
      },
      "properties": {
        "Nombre": "La Dormida",
        "Coordenadas": "-33.3881, -67.85475",
        "Fecha": "26/09/2026 18:04",
        "Temperatura": "30,0",
        "Humedad": "16,2",
        "Punto_de_Rocio": "1,6 °c",
        "Precipitacion": "0,00 mm",
        "Direccion_del_Viento": "191",
        "Velocidad_del_Viento": "5,0 km/h",
        "campo_15": "https://docs.google.com/spreadsheets/d/1MujiYSwhLQdPd90Qo8T2AVP3wb6Dd-dw3qcA7NwuLYA/pubhtml?gid=1875116345&single=true",
        "Temperatura_num": 30.0,
        "Humedad_num": 16.2,
        "Punto_de_Rocio_num": 1.6,
        "Precipitacion_mm_num": 0.0,
        "Direccion_del_Viento_num": 191.0,
        "Velocidad_del_Viento_kmh_num": 5.0,
        "Latitud": -33.3881,
        "Longitud": -67.85475,
        "actualizacion_geojson_utc": "2026-09-26T21:09:11.265430+00:00"
      }
    },
    {
      "type": "Feature",
      "geometry": {
        "type": "Point",
        "coordinates": [
          -69.03688,
          -33.87868
        ]
      },
      "properties": {
        "Nombre": "Casas Viejas",
        "Coordenadas": "-33.87868, -69.03688",
        "Fecha": "26/09/2026 18:05",
        "Temperatura": "23,2",
        "Humedad": "23,4",
        "Punto_de_Rocio": "1,1 °c",
        "Precipitacion": "0,00 mm",
        "Direccion_del_Viento": "314",
        "Velocidad_del_Viento": "5,8 km/h",
        "campo_15": "https://docs.google.com/spreadsheets/d/1PhWkz3WAtwOwPC3nE6TeOAOtjIGhmdkIVwHy3p5Uaj8/pubhtml?gid=696509580&single=true",
        "Temperatura_num": 23.2,
        "Humedad_num": 23.4,
        "Punto_de_Rocio_num": 1.1,
        "Precipitacion_mm_num": 0.0,
        "Direccion_del_Viento_num": 314.0,
        "Velocidad_del_Viento_kmh_num": 5.8,
        "Latitud": -33.87868,
        "Longitud": -69.03688,
        "actualizacion_geojson_utc": "2026-09-26T21:09:11.265437+00:00"
      }
    },
    {
      "type": "Feature",
      "geometry": {
        "type": "Point",
        "coordinates": [
          -68.306722,
          -33.015244
        ]
      },
      "properties": {
        "Nombre": "Lambare",
        "Coordenadas": "-33.015244, -68.306722",
        "Fecha": "26/09/2026 18:04",
        "Temperatura": "28,8",
        "Humedad": "12,7",
        "Punto_de_Rocio": "-2,7 °c",
        "Precipitacion": "0,00 mm",
        "Direccion_del_Viento": "147",
        "Velocidad_del_Viento": "16,6 km/h",
        "campo_15": "https://docs.google.com/spreadsheets/d/1MujiYSwhLQdPd90Qo8T2AVP3wb6Dd-dw3qcA7NwuLYA/pubhtml?gid=1815920711&single=true",
        "Temperatura_num": 28.8,
        "Humedad_num": 12.7,
        "Punto_de_Rocio_num": -2.7,
        "Precipitacion_mm_num": 0.0,
        "Direccion_del_Viento_num": 147.0,
        "Velocidad_del_Viento_kmh_num": 16.6,
        "Latitud": -33.015244,
        "Longitud": -68.306722,
        "actualizacion_geojson_utc": "2026-09-26T21:09:11.265445+00:00"
      }
    },
    {
      "type": "Feature",
      "geometry": {
        "type": "Point",
        "coordinates": [
          -68.56358,
          -32.96841
        ]
      },
      "properties": {
        "Nombre": "Los Alamos",
        "Coordenadas": "-32.96841, -68.56358",
        "Fecha": "26/09/2026 18:05",
        "Temperatura": "30,3",
        "Humedad": "15,5",
        "Punto_de_Rocio": "1,2 °c",
        "Precipitacion": "0,00 mm",
        "Direccion_del_Viento": "175",
        "Velocidad_del_Viento": "2,9 km/h",
        "campo_15": "https://docs.google.com/spreadsheets/d/1MujiYSwhLQdPd90Qo8T2AVP3wb6Dd-dw3qcA7NwuLYA/pubhtml?gid=998769565&single=true",
        "Temperatura_num": 30.3,
        "Humedad_num": 15.5,
        "Punto_de_Rocio_num": 1.2,
        "Precipitacion_mm_num": 0.0,
        "Direccion_del_Viento_num": 175.0,
        "Velocidad_del_Viento_kmh_num": 2.9,
        "Latitud": -32.96841,
        "Longitud": -68.56358,
        "actualizacion_geojson_utc": "2026-09-26T21:09:11.265452+00:00"
      }
    },
    {
      "type": "Feature",
      "geometry": {
        "type": "Point",
        "coordinates": [
          -68.154125,
          -34.687674
        ]
      },
      "properties": {
        "Nombre": "Goudge",
        "Coordenadas": "-34.687674, -68.154125",
        "Fecha": "26/09/2026 18:07",
        "Temperatura": "28,7",
        "Humedad": "15,7",
        "Punto_de_Rocio": "0,0 °c",
        "Precipitacion": "0,00 mm",
        "Direccion_del_Viento": "110",
        "Velocidad_del_Viento": "10,1 km/h",
        "campo_15": "https://docs.google.com/spreadsheets/d/1Ww_JDk53a6hO_16DAwSb2JNeGYk0dT0z_hzSeZYhsUI/pubhtml?gid=920985086&single=true",
        "Temperatura_num": 28.7,
        "Humedad_num": 15.7,
        "Punto_de_Rocio_num": 0.0,
        "Precipitacion_mm_num": 0.0,
        "Direccion_del_Viento_num": 110.0,
        "Velocidad_del_Viento_kmh_num": 10.1,
        "Latitud": -34.687674,
        "Longitud": -68.154125,
        "actualizacion_geojson_utc": "2026-09-26T21:09:11.265458+00:00"
      }
    },
    {
      "type": "Feature",
      "geometry": {
        "type": "Point",
        "coordinates": [
          -68.91698,
          -33.319999
        ]
      },
      "properties": {
        "Nombre": "Anchoris",
        "Coordenadas": "-33.319999, -68.916980",
        "Fecha": "26/09/2026 18:05",
        "Temperatura": "28,3",
        "Humedad": "15",
        "Punto_de_Rocio": "-0,9 °c",
        "Precipitacion": "0,00 mm",
        "Direccion_del_Viento": "22",
        "Velocidad_del_Viento": "10,4 km/h",
        "campo_15": "https://docs.google.com/spreadsheets/d/1PhWkz3WAtwOwPC3nE6TeOAOtjIGhmdkIVwHy3p5Uaj8/pubhtml?gid=1325564504&single=true",
        "Temperatura_num": 28.3,
        "Humedad_num": 15.0,
        "Punto_de_Rocio_num": -0.9,
        "Precipitacion_mm_num": 0.0,
        "Direccion_del_Viento_num": 22.0,
        "Velocidad_del_Viento_kmh_num": 10.4,
        "Latitud": -33.319999,
        "Longitud": -68.91698,
        "actualizacion_geojson_utc": "2026-09-26T21:09:11.265466+00:00"
      }
    },
    {
      "type": "Feature",
      "geometry": {
        "type": "Point",
        "coordinates": [
          -68.96251,
          -33.25305
        ]
      },
      "properties": {
        "Nombre": "Doña Paula",
        "Coordenadas": "-33.25305, -68.96251",
        "Fecha": "26/09/2026 18:05",
        "Temperatura": "25,7",
        "Humedad": "16,6",
        "Punto_de_Rocio": "-1,6 °c",
        "Precipitacion": "0,00 mm",
        "Direccion_del_Viento": "36",
        "Velocidad_del_Viento": "9,4 km/h",
        "campo_15": "https://docs.google.com/spreadsheets/d/1PhWkz3WAtwOwPC3nE6TeOAOtjIGhmdkIVwHy3p5Uaj8/pubhtml?gid=2069219791&single=true",
        "Temperatura_num": 25.7,
        "Humedad_num": 16.6,
        "Punto_de_Rocio_num": -1.6,
        "Precipitacion_mm_num": 0.0,
        "Direccion_del_Viento_num": 36.0,
        "Velocidad_del_Viento_kmh_num": 9.4,
        "Latitud": -33.25305,
        "Longitud": -68.96251,
        "actualizacion_geojson_utc": "2026-09-26T21:09:11.265473+00:00"
      }
    },
    {
      "type": "Feature",
      "geometry": {
        "type": "Point",
        "coordinates": [
          -68.598308,
          -33.205193
        ]
      },
      "properties": {
        "Nombre": "Reduccion",
        "Coordenadas": "-33.205193, -68.598308",
        "Fecha": "26/09/2026 18:05",
        "Temperatura": "28,9",
        "Humedad": "15,5",
        "Punto_de_Rocio": "0,1 °c",
        "Precipitacion": "0,00 mm",
        "Direccion_del_Viento": "108",
        "Velocidad_del_Viento": "13,3 km/h",
        "campo_15": "https://docs.google.com/spreadsheets/d/1MujiYSwhLQdPd90Qo8T2AVP3wb6Dd-dw3qcA7NwuLYA/pubhtml?gid=374540846&single=true",
        "Temperatura_num": 28.9,
        "Humedad_num": 15.5,
        "Punto_de_Rocio_num": 0.1,
        "Precipitacion_mm_num": 0.0,
        "Direccion_del_Viento_num": 108.0,
        "Velocidad_del_Viento_kmh_num": 13.3,
        "Latitud": -33.205193,
        "Longitud": -68.598308,
        "actualizacion_geojson_utc": "2026-09-26T21:09:11.265479+00:00"
      }
    },
    {
      "type": "Feature",
      "geometry": {
        "type": "Point",
        "coordinates": [
          -69.07936,
          -33.96004
        ]
      },
      "properties": {
        "Nombre": "Pareditas",
        "Coordenadas": "-33.96004, -69.07936",
        "Fecha": "26/09/2026 18:05",
        "Temperatura": "24,2",
        "Humedad": "20,2",
        "Punto_de_Rocio": "-0,1 °c",
        "Precipitacion": "0,00 mm",
        "Direccion_del_Viento": "313",
        "Velocidad_del_Viento": "6,8 km/h",
        "campo_15": "https://docs.google.com/spreadsheets/d/1PhWkz3WAtwOwPC3nE6TeOAOtjIGhmdkIVwHy3p5Uaj8/pubhtml?gid=1188976703&single=true",
        "Temperatura_num": 24.2,
        "Humedad_num": 20.2,
        "Punto_de_Rocio_num": -0.1,
        "Precipitacion_mm_num": 0.0,
        "Direccion_del_Viento_num": 313.0,
        "Velocidad_del_Viento_kmh_num": 6.8,
        "Latitud": -33.96004,
        "Longitud": -69.07936,
        "actualizacion_geojson_utc": "2026-09-26T21:09:11.265488+00:00"
      }
    },
    {
      "type": "Feature",
      "geometry": {
        "type": "Point",
        "coordinates": [
          -68.32965,
          -32.74771
        ]
      },
      "properties": {
        "Nombre": "Nueva California",
        "Coordenadas": "-32.74771, -68.32965",
        "Fecha": "26/09/2026 18:05",
        "Temperatura": "28,7",
        "Humedad": "15,3",
        "Punto_de_Rocio": "-0,2 °c",
        "Precipitacion": "0,00 mm",
        "Direccion_del_Viento": "161",
        "Velocidad_del_Viento": "7,9 km/h",
        "campo_15": "https://docs.google.com/spreadsheets/d/1MujiYSwhLQdPd90Qo8T2AVP3wb6Dd-dw3qcA7NwuLYA/pubhtml?gid=1314929743&single=true",
        "Temperatura_num": 28.7,
        "Humedad_num": 15.3,
        "Punto_de_Rocio_num": -0.2,
        "Precipitacion_mm_num": 0.0,
        "Direccion_del_Viento_num": 161.0,
        "Velocidad_del_Viento_kmh_num": 7.9,
        "Latitud": -32.74771,
        "Longitud": -68.32965,
        "actualizacion_geojson_utc": "2026-09-26T21:09:11.265496+00:00"
      }
    },
    {
      "type": "Feature",
      "geometry": {
        "type": "Point",
        "coordinates": [
          -68.338421,
          -33.332741
        ]
      },
      "properties": {
        "Nombre": "El Mirador",
        "Coordenadas": "-33.332741, -68.338421",
        "Fecha": "26/09/2026 18:03",
        "Temperatura": "29,2",
        "Humedad": "14,5",
        "Punto_de_Rocio": "-0,6 °c",
        "Precipitacion": "0,00 mm",
        "Direccion_del_Viento": "163",
        "Velocidad_del_Viento": "10,4 km/h",
        "campo_15": "https://docs.google.com/spreadsheets/d/1MujiYSwhLQdPd90Qo8T2AVP3wb6Dd-dw3qcA7NwuLYA/pubhtml?gid=596927444&single=true",
        "Temperatura_num": 29.2,
        "Humedad_num": 14.5,
        "Punto_de_Rocio_num": -0.6,
        "Precipitacion_mm_num": 0.0,
        "Direccion_del_Viento_num": 163.0,
        "Velocidad_del_Viento_kmh_num": 10.4,
        "Latitud": -33.332741,
        "Longitud": -68.338421,
        "actualizacion_geojson_utc": "2026-09-26T21:09:11.265502+00:00"
      }
    },
    {
      "type": "Feature",
      "geometry": {
        "type": "Point",
        "coordinates": [
          -69.204271,
          -33.612216
        ]
      },
      "properties": {
        "Nombre": "Los Chacayes",
        "Coordenadas": "-33.612216, -69.204271",
        "Fecha": "26/09/2026 18:05",
        "Temperatura": "25,3",
        "Humedad": "18,9",
        "Punto_de_Rocio": "-0,1 °c",
        "Precipitacion": "0,00 mm",
        "Direccion_del_Viento": "242",
        "Velocidad_del_Viento": "0,0 km/h",
        "campo_15": "https://docs.google.com/spreadsheets/d/1PhWkz3WAtwOwPC3nE6TeOAOtjIGhmdkIVwHy3p5Uaj8/pubhtml?gid=694054457&single=true",
        "Temperatura_num": 25.3,
        "Humedad_num": 18.9,
        "Punto_de_Rocio_num": -0.1,
        "Precipitacion_mm_num": 0.0,
        "Direccion_del_Viento_num": 242.0,
        "Velocidad_del_Viento_kmh_num": 0.0,
        "Latitud": -33.612216,
        "Longitud": -69.204271,
        "actualizacion_geojson_utc": "2026-09-26T21:09:11.265508+00:00"
      }
    },
    {
      "type": "Feature",
      "geometry": {
        "type": "Point",
        "coordinates": [
          -68.48006,
          -32.71372
        ]
      },
      "properties": {
        "Nombre": "El Plumero",
        "Coordenadas": "-32.71372, -68.48006",
        "Fecha": "26/09/2026 18:04",
        "Temperatura": "28,3",
        "Humedad": "12,8",
        "Punto_de_Rocio": "-3,0 °c",
        "Precipitacion": "0,00 mm",
        "Direccion_del_Viento": "114",
        "Velocidad_del_Viento": "4,0 km/h",
        "campo_15": "https://docs.google.com/spreadsheets/d/1MujiYSwhLQdPd90Qo8T2AVP3wb6Dd-dw3qcA7NwuLYA/pubhtml?gid=481175118&single=true",
        "Temperatura_num": 28.3,
        "Humedad_num": 12.8,
        "Punto_de_Rocio_num": -3.0,
        "Precipitacion_mm_num": 0.0,
        "Direccion_del_Viento_num": 114.0,
        "Velocidad_del_Viento_kmh_num": 4.0,
        "Latitud": -32.71372,
        "Longitud": -68.48006,
        "actualizacion_geojson_utc": "2026-09-26T21:09:11.265514+00:00"
      }
    },
    {
      "type": "Feature",
      "geometry": {
        "type": "Point",
        "coordinates": [
          -68.30687,
          -33.09866
        ]
      },
      "properties": {
        "Nombre": "El Ramblon",
        "Coordenadas": "-33.09866, -68.30687",
        "Fecha": "26/09/2026 18:05",
        "Temperatura": "29,8",
        "Humedad": "15,5",
        "Punto_de_Rocio": "0,8 °c",
        "Precipitacion": "0,00 mm",
        "Direccion_del_Viento": "159",
        "Velocidad_del_Viento": "7,9 km/h",
        "campo_15": "https://docs.google.com/spreadsheets/d/1MujiYSwhLQdPd90Qo8T2AVP3wb6Dd-dw3qcA7NwuLYA/pubhtml?gid=1254232953&single=true",
        "Temperatura_num": 29.8,
        "Humedad_num": 15.5,
        "Punto_de_Rocio_num": 0.8,
        "Precipitacion_mm_num": 0.0,
        "Direccion_del_Viento_num": 159.0,
        "Velocidad_del_Viento_kmh_num": 7.9,
        "Latitud": -33.09866,
        "Longitud": -68.30687,
        "actualizacion_geojson_utc": "2026-09-26T21:09:11.265521+00:00"
      }
    },
    {
      "type": "Feature",
      "geometry": {
        "type": "Point",
        "coordinates": [
          -69.27995,
          -33.60837
        ]
      },
      "properties": {
        "Nombre": "Los Chacayes (Alpasion)",
        "Coordenadas": "-33.60837, -69.27995",
        "Fecha": "26/09/2026 18:06",
        "Temperatura": "22,3",
        "Humedad": "22,8",
        "Punto_de_Rocio": "0,0 °c",
        "Precipitacion": "0,00 mm",
        "Direccion_del_Viento": "5",
        "Velocidad_del_Viento": "0,0 km/h",
        "campo_15": "https://docs.google.com/spreadsheets/d/1PhWkz3WAtwOwPC3nE6TeOAOtjIGhmdkIVwHy3p5Uaj8/pubhtml?gid=2036296274&single=true",
        "Temperatura_num": 22.3,
        "Humedad_num": 22.8,
        "Punto_de_Rocio_num": 0.0,
        "Precipitacion_mm_num": 0.0,
        "Direccion_del_Viento_num": 5.0,
        "Velocidad_del_Viento_kmh_num": 0.0,
        "Latitud": -33.60837,
        "Longitud": -69.27995,
        "actualizacion_geojson_utc": "2026-09-26T21:09:11.265527+00:00"
      }
    },
    {
      "type": "Feature",
      "geometry": {
        "type": "Point",
        "coordinates": [
          -69.32905,
          -33.604885
        ]
      },
      "properties": {
        "Nombre": "Los Chacayes (Carrizalejo)",
        "Coordenadas": "-33.604885, -69.329050",
        "Fecha": "26/09/2026 18:06",
        "Temperatura": "19,7",
        "Humedad": "28,4",
        "Punto_de_Rocio": "0,8 °c",
        "Precipitacion": "0,00 mm",
        "Direccion_del_Viento": "2",
        "Velocidad_del_Viento": "0,0 km/h",
        "campo_15": "https://docs.google.com/spreadsheets/d/1PhWkz3WAtwOwPC3nE6TeOAOtjIGhmdkIVwHy3p5Uaj8/pubhtml?gid=768033530&single=true",
        "Temperatura_num": 19.7,
        "Humedad_num": 28.4,
        "Punto_de_Rocio_num": 0.8,
        "Precipitacion_mm_num": 0.0,
        "Direccion_del_Viento_num": 2.0,
        "Velocidad_del_Viento_kmh_num": 0.0,
        "Latitud": -33.604885,
        "Longitud": -69.32905,
        "actualizacion_geojson_utc": "2026-09-26T21:09:11.265533+00:00"
      }
    },
    {
      "type": "Feature",
      "geometry": {
        "type": "Point",
        "coordinates": [
          -68.658793,
          -33.062661
        ]
      },
      "properties": {
        "Nombre": "Isla Chica",
        "Coordenadas": "-33.062661, -68.658793",
        "Fecha": "26/09/2026 18:06",
        "Temperatura": "29,3",
        "Humedad": "12,8",
        "Punto_de_Rocio": "-2,2 °c",
        "Precipitacion": "0,00 mm",
        "Direccion_del_Viento": "240",
        "Velocidad_del_Viento": "1,8 km/h",
        "campo_15": "https://docs.google.com/spreadsheets/d/e/2PACX-1vRI7SiiCPN7rqmnH94KC2RF3vtKqOO9ErCBB9xzrtZEQWA7J4zBUabI7tlQbCI4yjMGf2miEm4mfktV/pubhtml?gid=1700345372&single=true",
        "Temperatura_num": 29.3,
        "Humedad_num": 12.8,
        "Punto_de_Rocio_num": -2.2,
        "Precipitacion_mm_num": 0.0,
        "Direccion_del_Viento_num": 240.0,
        "Velocidad_del_Viento_kmh_num": 1.8,
        "Latitud": -33.062661,
        "Longitud": -68.658793,
        "actualizacion_geojson_utc": "2026-09-26T21:09:11.265540+00:00"
      }
    },
    {
      "type": "Feature",
      "geometry": {
        "type": "Point",
        "coordinates": [
          -68.67884,
          -32.72044
        ]
      },
      "properties": {
        "Nombre": "Jocoli Viejo",
        "Coordenadas": "-32.72044, -68.67884",
        "Fecha": "26/09/2026 18:07",
        "Temperatura": "29,5",
        "Humedad": "14,3",
        "Punto_de_Rocio": "-0,5 °c",
        "Precipitacion": "0,00 mm",
        "Direccion_del_Viento": "180",
        "Velocidad_del_Viento": "3,6 km/h",
        "campo_15": "https://docs.google.com/spreadsheets/d/e/2PACX-1vRI7SiiCPN7rqmnH94KC2RF3vtKqOO9ErCBB9xzrtZEQWA7J4zBUabI7tlQbCI4yjMGf2miEm4mfktV/pubhtml?gid=825433005&single=true",
        "Temperatura_num": 29.5,
        "Humedad_num": 14.3,
        "Punto_de_Rocio_num": -0.5,
        "Precipitacion_mm_num": 0.0,
        "Direccion_del_Viento_num": 180.0,
        "Velocidad_del_Viento_kmh_num": 3.6,
        "Latitud": -32.72044,
        "Longitud": -68.67884,
        "actualizacion_geojson_utc": "2026-09-26T21:09:11.265546+00:00"
      }
    },
    {
      "type": "Feature",
      "geometry": {
        "type": "Point",
        "coordinates": [
          -68.965366,
          -33.443666
        ]
      },
      "properties": {
        "Nombre": "Cruz Negra",
        "Coordenadas": "-33.443666, -68.965366",
        "Fecha": "26/09/2026 18:05",
        "Temperatura": "28,9",
        "Humedad": "12,5",
        "Punto_de_Rocio": "-2,9 °c",
        "Precipitacion": "0,00 mm",
        "Direccion_del_Viento": "11",
        "Velocidad_del_Viento": "14,4 km/h",
        "campo_15": "https://docs.google.com/spreadsheets/d/1PhWkz3WAtwOwPC3nE6TeOAOtjIGhmdkIVwHy3p5Uaj8/pubhtml?gid=337841247&single=true",
        "Temperatura_num": 28.9,
        "Humedad_num": 12.5,
        "Punto_de_Rocio_num": -2.9,
        "Precipitacion_mm_num": 0.0,
        "Direccion_del_Viento_num": 11.0,
        "Velocidad_del_Viento_kmh_num": 14.4,
        "Latitud": -33.443666,
        "Longitud": -68.965366,
        "actualizacion_geojson_utc": "2026-09-26T21:09:11.265553+00:00"
      }
    },
    {
      "type": "Feature",
      "geometry": {
        "type": "Point",
        "coordinates": [
          -69.133912,
          -33.423616
        ]
      },
      "properties": {
        "Nombre": "Cordon del Plata",
        "Coordenadas": "-33.423616, -69.133912",
        "Fecha": "26/09/2026 18:05",
        "Temperatura": "27,2",
        "Humedad": "22,3",
        "Punto_de_Rocio": "3,7 °c",
        "Precipitacion": "0,00 mm",
        "Direccion_del_Viento": "48",
        "Velocidad_del_Viento": "7,9 km/h",
        "campo_15": "https://docs.google.com/spreadsheets/d/1PhWkz3WAtwOwPC3nE6TeOAOtjIGhmdkIVwHy3p5Uaj8/pubhtml?gid=1680678841&single=true",
        "Temperatura_num": 27.2,
        "Humedad_num": 22.3,
        "Punto_de_Rocio_num": 3.7,
        "Precipitacion_mm_num": 0.0,
        "Direccion_del_Viento_num": 48.0,
        "Velocidad_del_Viento_kmh_num": 7.9,
        "Latitud": -33.423616,
        "Longitud": -69.133912,
        "actualizacion_geojson_utc": "2026-09-26T21:09:11.265559+00:00"
      }
    },
    {
      "type": "Feature",
      "geometry": {
        "type": "Point",
        "coordinates": [
          -68.008373,
          -34.566594
        ]
      },
      "properties": {
        "Nombre": "Colonia Elena",
        "Coordenadas": "-34.566594, -68.008373",
        "Fecha": "26/09/2026 18:07",
        "Temperatura": "28,3",
        "Humedad": "14",
        "Punto_de_Rocio": "-1,8 °c",
        "Precipitacion": "0,00 mm",
        "Direccion_del_Viento": "162",
        "Velocidad_del_Viento": "4,0 km/h",
        "campo_15": "https://docs.google.com/spreadsheets/d/1Ww_JDk53a6hO_16DAwSb2JNeGYk0dT0z_hzSeZYhsUI/pubhtml?gid=1380462189&single=true",
        "Temperatura_num": 28.3,
        "Humedad_num": 14.0,
        "Punto_de_Rocio_num": -1.8,
        "Precipitacion_mm_num": 0.0,
        "Direccion_del_Viento_num": 162.0,
        "Velocidad_del_Viento_kmh_num": 4.0,
        "Latitud": -34.566594,
        "Longitud": -68.008373,
        "actualizacion_geojson_utc": "2026-09-26T21:09:11.265565+00:00"
      }
    },
    {
      "type": "Feature",
      "geometry": {
        "type": "Point",
        "coordinates": [
          -68.1014,
          -34.530612
        ]
      },
      "properties": {
        "Nombre": "Resolana",
        "Coordenadas": "-34.530612, -68.101400",
        "Fecha": "26/09/2026 18:07",
        "Temperatura": "28,3",
        "Humedad": "13",
        "Punto_de_Rocio": "-2,8 °c",
        "Precipitacion": "0,00 mm",
        "Direccion_del_Viento": "118",
        "Velocidad_del_Viento": "13,3 km/h",
        "campo_15": "https://docs.google.com/spreadsheets/d/1Ww_JDk53a6hO_16DAwSb2JNeGYk0dT0z_hzSeZYhsUI/pubhtml?gid=1700196976&single=true",
        "Temperatura_num": 28.3,
        "Humedad_num": 13.0,
        "Punto_de_Rocio_num": -2.8,
        "Precipitacion_mm_num": 0.0,
        "Direccion_del_Viento_num": 118.0,
        "Velocidad_del_Viento_kmh_num": 13.3,
        "Latitud": -34.530612,
        "Longitud": -68.1014,
        "actualizacion_geojson_utc": "2026-09-26T21:09:11.265576+00:00"
      }
    },
    {
      "type": "Feature",
      "geometry": {
        "type": "Point",
        "coordinates": [
          -67.861878,
          -34.568597
        ]
      },
      "properties": {
        "Nombre": "Monte Coman",
        "Coordenadas": "-34.568597, -67.861878",
        "Fecha": "26/09/2026 18:07",
        "Temperatura": "29,4",
        "Humedad": "14,2",
        "Punto_de_Rocio": "-0,8 °c",
        "Precipitacion": "0,00 mm",
        "Direccion_del_Viento": "204",
        "Velocidad_del_Viento": "6,8 km/h",
        "campo_15": "https://docs.google.com/spreadsheets/d/1Ww_JDk53a6hO_16DAwSb2JNeGYk0dT0z_hzSeZYhsUI/pubhtml?gid=723049301&single=true",
        "Temperatura_num": 29.4,
        "Humedad_num": 14.2,
        "Punto_de_Rocio_num": -0.8,
        "Precipitacion_mm_num": 0.0,
        "Direccion_del_Viento_num": 204.0,
        "Velocidad_del_Viento_kmh_num": 6.8,
        "Latitud": -34.568597,
        "Longitud": -67.861878,
        "actualizacion_geojson_utc": "2026-09-26T21:09:11.265583+00:00"
      }
    },
    {
      "type": "Feature",
      "geometry": {
        "type": "Point",
        "coordinates": [
          -68.25113,
          -34.828069
        ]
      },
      "properties": {
        "Nombre": "Las Malvinas",
        "Coordenadas": "-34.828069, -68.251130",
        "Fecha": "26/09/2026 18:06",
        "Temperatura": "28,6",
        "Humedad": "14,7",
        "Punto_de_Rocio": "-0,9 °c",
        "Precipitacion": "0,00 mm",
        "Direccion_del_Viento": "144",
        "Velocidad_del_Viento": "7,9 km/h",
        "campo_15": "https://docs.google.com/spreadsheets/d/1Ww_JDk53a6hO_16DAwSb2JNeGYk0dT0z_hzSeZYhsUI/pubhtml?gid=655771849&single=true",
        "Temperatura_num": 28.6,
        "Humedad_num": 14.7,
        "Punto_de_Rocio_num": -0.9,
        "Precipitacion_mm_num": 0.0,
        "Direccion_del_Viento_num": 144.0,
        "Velocidad_del_Viento_kmh_num": 7.9,
        "Latitud": -34.828069,
        "Longitud": -68.25113,
        "actualizacion_geojson_utc": "2026-09-26T21:09:11.265591+00:00"
      }
    },
    {
      "type": "Feature",
      "geometry": {
        "type": "Point",
        "coordinates": [
          -67.952711,
          -34.046365
        ]
      },
      "properties": {
        "Nombre": "Ñacuñan",
        "Coordenadas": "-34.046365, -67.952711",
        "Fecha": "26/09/2026 18:05",
        "Temperatura": "30,7",
        "Humedad": "11,6",
        "Punto_de_Rocio": "-2,5 °c",
        "Precipitacion": "0,00 mm",
        "Direccion_del_Viento": "158",
        "Velocidad_del_Viento": "5,8 km/h",
        "campo_15": null,
        "Temperatura_num": 30.7,
        "Humedad_num": 11.6,
        "Punto_de_Rocio_num": -2.5,
        "Precipitacion_mm_num": 0.0,
        "Direccion_del_Viento_num": 158.0,
        "Velocidad_del_Viento_kmh_num": 5.8,
        "Latitud": -34.046365,
        "Longitud": -67.952711,
        "actualizacion_geojson_utc": "2026-09-26T21:09:11.265597+00:00"
      }
    }
  ]
}